{"type": "FeatureCollection", "features": [ {"type": "Feature", "properties": {"norad_id": 42969, "name": "SENTINEL-5P", "group": "resource", "lat": -48.91567081923221, "lon": 87.92308418672867, "alt_km": 834.3791351278978, "timestamp": "2025-12-05T11:32:55.683987+00:00", "meta": {"OBJECT_NAME": "SENTINEL-5P", "OBJECT_ID": "2017-064A", "EPOCH": "2025-12-04T14:10:13.418112", "MEAN_MOTION": 14.19514284, "ECCENTRICITY": 9.45e-05, "INCLINATION": 98.7771, "RA_OF_ASC_NODE": 277.2473, "ARG_OF_PERICENTER": 86.0415, "MEAN_ANOMALY": 274.0869, "EPHEMERIS_TYPE": 0, "CLASSIFICATION_TYPE": "U", "NORAD_CAT_ID": 42969, "ELEMENT_SET_NO": 999, "REV_AT_EPOCH": 42195, "BSTAR": 0.00010752, "MEAN_MOTION_DOT": 1.82e-06, "MEAN_MOTION_DDOT": 0}, "tle": {"line1": "1 42969U 17064A   25338.59043308  .00000182  00000+0  10752-3 0  9999", "line2": "2 42969  98.7771 277.2473 0000945  86.0415 274.0869 14.19514284421951"}}, "geometry": {"type": "Point", "coordinates": [87.92308418672867, -48.91567081923221]}}, {"type": "Feature", "properties": {"norad_id": 42987, "name": "SKYSAT-C11", "group": "resource", "lat": -70.52490058038163, "lon": -84.80941168353874, "alt_km": 433.29375666714895, "timestamp": "2025-12-05T11:32:55.683997+00:00", "meta": {"OBJECT_NAME": "SKYSAT-C11", "OBJECT_ID": "2017-068A", "EPOCH": "2025-12-04T08:04:18.175008", "MEAN_MOTION": 15.46918857, "ECCENTRICITY": 9.37e-05, "INCLINATION": 97.4136, "RA_OF_ASC_NODE": 115.6241, "ARG_OF_PERICENTER": 111.7311, "MEAN_ANOMALY": 248.4038, "EPHEMERIS_TYPE": 0, "CLASSIFICATION_TYPE": "U", "NORAD_CAT_ID": 42987, "ELEMENT_SET_NO": 999, "REV_AT_EPOCH": 45301, "BSTAR": 0.00086034, "MEAN_MOTION_DOT": 0.00043399, "MEAN_MOTION_DDOT": 0}, "tle": {"line1": "1 42987U 17068A   25338.33632147  .00043399  00000+0  86034-3 0  9993", "line2": "2 42987  97.4136 115.6241 0000937 111.7311 248.4038 15.46918857453012"}}, "geometry": {"type": "Point", "coordinates": [-84.80941168353874, -70.52490058038163]}}, {"type": "Feature", "properties": {"norad_id": 42988, "name": "SKYSAT-C10", "group": "resource", "lat": 10.887184933251941, "lon": 108.87824484792412, "alt_km": 474.05691763758114, "timestamp": "2025-12-05T11:32:55.684008+00:00", "meta": {"OBJECT_NAME": "SKYSAT-C10", "OBJECT_ID": "2017-068B", "EPOCH": "2025-12-04T07:16:54.383808", "MEAN_MOTION": 15.31835554, "ECCENTRICITY": 0.0006971, "INCLINATION": 97.4228, "RA_OF_ASC_NODE": 109.1352, "ARG_OF_PERICENTER": 134.0692, "MEAN_ANOMALY": 226.1124, "EPHEMERIS_TYPE": 0, "CLASSIFICATION_TYPE": "U", "NORAD_CAT_ID": 42988, "ELEMENT_SET_NO": 999, "REV_AT_EPOCH": 45250, "BSTAR": 0.00074085, "MEAN_MOTION_DOT": 0.00022753, "MEAN_MOTION_DDOT": 0}, "tle": {"line1": "1 42988U 17068B   25338.30340722  .00022753  00000+0  74085-3 0  9990", "line2": "2 42988  97.4228 109.1352 0006971 134.0692 226.1124 15.31835554452508"}}, "geometry": {"type": "Point", "coordinates": [108.87824484792412, 10.887184933251941]}}, {"type": "Feature", "properties": {"norad_id": 42989, "name": "SKYSAT-C9", "group": "resource", "lat": 63.89175527970954, "lon": -54.90156643269349, "alt_km": 445.13857817638745, "timestamp": "2025-12-05T11:32:55.684019+00:00", "meta": {"OBJECT_NAME": "SKYSAT-C9", "OBJECT_ID": "2017-068C", "EPOCH": "2025-12-04T08:27:57.708000", "MEAN_MOTION": 15.35718179, "ECCENTRICITY": 0.0010654, "INCLINATION": 97.4185, "RA_OF_ASC_NODE": 108.543, "ARG_OF_PERICENTER": 115.0051, "MEAN_ANOMALY": 245.23, "EPHEMERIS_TYPE": 0, "CLASSIFICATION_TYPE": "U", "NORAD_CAT_ID": 42989, "ELEMENT_SET_NO": 999, "REV_AT_EPOCH": 45279, "BSTAR": 0.00078251, "MEAN_MOTION_DOT": 0.00027214, "MEAN_MOTION_DDOT": 0}, "tle": {"line1": "1 42989U 17068C   25338.35275125  .00027214  00000+0  78251-3 0  9996", "line2": "2 42989  97.4185 108.5430 0010654 115.0051 245.2300 15.35718179452798"}}, "geometry": {"type": "Point", "coordinates": [-54.90156643269349, 63.89175527970954]}}, {"type": "Feature", "properties": {"norad_id": 42990, "name": "SKYSAT-C8", "group": "resource", "lat": 12.755736687959592, "lon": -68.85611637407814, "alt_km": 470.3771223530157, "timestamp": "2025-12-05T11:32:55.684029+00:00", "meta": {"OBJECT_NAME": "SKYSAT-C8", "OBJECT_ID": "2017-068D", "EPOCH": "2025-12-04T16:01:10.335072", "MEAN_MOTION": 15.32647, "ECCENTRICITY": 0.0002071, "INCLINATION": 97.4278, "RA_OF_ASC_NODE": 108.6347, "ARG_OF_PERICENTER": 17.0554, "MEAN_ANOMALY": 343.0757, "EPHEMERIS_TYPE": 0, "CLASSIFICATION_TYPE": "U", "NORAD_CAT_ID": 42990, "ELEMENT_SET_NO": 999, "REV_AT_EPOCH": 45247, "BSTAR": 0.00070665, "MEAN_MOTION_DOT": 0.0002224, "MEAN_MOTION_DDOT": 0}, "tle": {"line1": "1 42990U 17068D   25338.66748073  .00022240  00000+0  70665-3 0  9994", "line2": "2 42990  97.4278 108.6347 0002071  17.0554 343.0757 15.32647000452473"}}, "geometry": {"type": "Point", "coordinates": [-68.85611637407814, 12.755736687959592]}}, {"type": "Feature", "properties": {"norad_id": 42991, "name": "SKYSAT-C7", "group": "resource", "lat": 37.38473264134383, "lon": 104.77646353140612, "alt_km": 462.8992092339977, "timestamp": "2025-12-05T11:32:55.684039+00:00", "meta": {"OBJECT_NAME": "SKYSAT-C7", "OBJECT_ID": "2017-068E", "EPOCH": "2025-12-04T15:00:25.075008", "MEAN_MOTION": 15.32054452, "ECCENTRICITY": 0.0007895, "INCLINATION": 97.4285, "RA_OF_ASC_NODE": 109.64, "ARG_OF_PERICENTER": 82.4418, "MEAN_ANOMALY": 277.772, "EPHEMERIS_TYPE": 0, "CLASSIFICATION_TYPE": "U", "NORAD_CAT_ID": 42991, "ELEMENT_SET_NO": 999, "REV_AT_EPOCH": 45253, "BSTAR": 0.00072752, "MEAN_MOTION_DOT": 0.00022499, "MEAN_MOTION_DDOT": 0}, "tle": {"line1": "1 42991U 17068E   25338.62529022  .00022499  00000+0  72752-3 0  9997", "line2": "2 42991  97.4285 109.6400 0007895  82.4418 277.7720 15.32054452452530"}}, "geometry": {"type": "Point", "coordinates": [104.77646353140612, 37.38473264134383]}}, {"type": "Feature", "properties": {"norad_id": 42992, "name": "SKYSAT-C6", "group": "resource", "lat": 3.2684633063540476, "lon": -68.62999196241486, "alt_km": 473.72239012130194, "timestamp": "2025-12-05T11:32:55.684049+00:00", "meta": {"OBJECT_NAME": "SKYSAT-C6", "OBJECT_ID": "2017-068F", "EPOCH": "2025-12-04T14:23:30.751872", "MEAN_MOTION": 15.31229154, "ECCENTRICITY": 0.0005164, "INCLINATION": 97.4319, "RA_OF_ASC_NODE": 110.0595, "ARG_OF_PERICENTER": 105.6508, "MEAN_ANOMALY": 254.5303, "EPHEMERIS_TYPE": 0, "CLASSIFICATION_TYPE": "U", "NORAD_CAT_ID": 42992, "ELEMENT_SET_NO": 999, "REV_AT_EPOCH": 45251, "BSTAR": 0.00072089, "MEAN_MOTION_DOT": 0.00021714, "MEAN_MOTION_DDOT": 0}, "tle": {"line1": "1 42992U 17068F   25338.59966148  .00021714  00000+0  72089-3 0  9990", "line2": "2 42992  97.4319 110.0595 0005164 105.6508 254.5303 15.31229154452515"}}, "geometry": {"type": "Point", "coordinates": [-68.62999196241486, 3.2684633063540476]}}, {"type": "Feature", "properties": {"norad_id": 43111, "name": "CARTOSAT-2F", "group": "resource", "lat": -59.31942179655611, "lon": -155.47595651425084, "alt_km": 515.5846177196854, "timestamp": "2025-12-05T11:32:55.684059+00:00", "meta": {"OBJECT_NAME": "CARTOSAT-2F", "OBJECT_ID": "2018-004A", "EPOCH": "2025-12-04T17:06:22.006080", "MEAN_MOTION": 15.19154935, "ECCENTRICITY": 3.73e-05, "INCLINATION": 97.4333, "RA_OF_ASC_NODE": 36.4803, "ARG_OF_PERICENTER": 127.8571, "MEAN_ANOMALY": 232.2697, "EPHEMERIS_TYPE": 0, "CLASSIFICATION_TYPE": "U", "NORAD_CAT_ID": 43111, "ELEMENT_SET_NO": 999, "REV_AT_EPOCH": 43780, "BSTAR": 0.00083912, "MEAN_MOTION_DOT": 0.00017598, "MEAN_MOTION_DDOT": 0}, "tle": {"line1": "1 43111U 18004A   25338.71275470  .00017598  00000+0  83912-3 0  9992", "line2": "2 43111  97.4333  36.4803 0000373 127.8571 232.2697 15.19154935437805"}}, "geometry": {"type": "Point", "coordinates": [-155.47595651425084, -59.31942179655611]}}, {"type": "Feature", "properties": {"norad_id": 43259, "name": "GAOFEN-1 02", "group": "resource", "lat": 41.14848292569676, "lon": 30.134737108434873, "alt_km": 638.0976330301419, "timestamp": "2025-12-05T11:32:55.684069+00:00", "meta": {"OBJECT_NAME": "GAOFEN-1 02", "OBJECT_ID": "2018-031A", "EPOCH": "2025-12-04T17:28:09.422112", "MEAN_MOTION": 14.76454976, "ECCENTRICITY": 0.000133, "INCLINATION": 98.0818, "RA_OF_ASC_NODE": 36.5137, "ARG_OF_PERICENTER": 250.3343, "MEAN_ANOMALY": 109.7723, "EPHEMERIS_TYPE": 0, "CLASSIFICATION_TYPE": "U", "NORAD_CAT_ID": 43259, "ELEMENT_SET_NO": 999, "REV_AT_EPOCH": 41400, "BSTAR": 0.00028021, "MEAN_MOTION_DOT": 1.898e-05, "MEAN_MOTION_DDOT": 0}, "tle": {"line1": "1 43259U 18031A   25338.72788683  .00001898  00000+0  28021-3 0  9997", "line2": "2 43259  98.0818  36.5137 0001330 250.3343 109.7723 14.76454976414002"}}, "geometry": {"type": "Point", "coordinates": [30.134737108434873, 41.14848292569676]}}, {"type": "Feature", "properties": {"norad_id": 43260, "name": "GAOFEN-1 03", "group": "resource", "lat": 21.789126464500207, "lon": -139.59882979698205, "alt_km": 642.1972937016817, "timestamp": "2025-12-05T11:32:55.684079+00:00", "meta": {"OBJECT_NAME": "GAOFEN-1 03", "OBJECT_ID": "2018-031B", "EPOCH": "2025-12-04T18:34:14.250720", "MEAN_MOTION": 14.76411499, "ECCENTRICITY": 0.0002536, "INCLINATION": 98.081, "RA_OF_ASC_NODE": 36.4376, "ARG_OF_PERICENTER": 353.9599, "MEAN_ANOMALY": 6.1579, "EPHEMERIS_TYPE": 0, "CLASSIFICATION_TYPE": "U", "NORAD_CAT_ID": 43260, "ELEMENT_SET_NO": 999, "REV_AT_EPOCH": 41400, "BSTAR": 0.00028001, "MEAN_MOTION_DOT": 1.895e-05, "MEAN_MOTION_DDOT": 0}, "tle": {"line1": "1 43260U 18031B   25338.77377605  .00001895  00000+0  28001-3 0  9997", "line2": "2 43260  98.0810  36.4376 0002536 353.9599   6.1579 14.76411499414004"}}, "geometry": {"type": "Point", "coordinates": [-139.59882979698205, 21.789126464500207]}}]}